[Satellite]
VERSION=1.1
NAME=GPS BIIR-05 (PRN 28)
NICKNAME=GPS BIIR-05 (PRN 28)
TLE1=1 26407U 00040A   17186.10165300 -.00000086  00000-0  00000-0 0  9997
TLE2=2 26407  56.6289 344.4504 0199243 270.1078 104.6373  2.00566773124382
